STARLETTE               
1 07646U 75010A   26074.25566693 -.00000134  00000+0  86367-5 0  9990
2 07646  49.8221 115.3591 0205587 112.7297 249.5466 13.82349248581545
LAGEOS 1                
1 08820U 76039A   26073.88179889  .00000000  00000+0  00000+0 0  9997
2 08820 109.8157 147.0602 0044663 322.4845 209.7624  6.38664871907119
AJISAI (EGS)            
1 16908U 86061A   26074.32447108 -.00000090  00000+0  51551-4 0  9993
2 16908  50.0084  76.0197 0011283 301.5020  71.7644 12.44515679468707
COSMOS 1989 (ETALON 1)  
1 19751U 89001C   26073.07896895  .00000054  00000+0  00000+0 0  9998
2 19751  64.8905  75.4467 0023419 217.5929 205.2239  2.13156113289346
COSMOS 2024 (ETALON 2)  
1 20026U 89039C   26073.99083020 -.00000011  00000+0  00000+0 0  9999
2 20026  64.9910 313.7828 0020467 213.3504 330.4605  2.13204627286497
LAGEOS 2                
1 22195U 92070B   26074.09567484 -.00000009  00000+0  00000+0 0  9997
2 22195  52.6763 326.1292 0137727 146.1803 244.7165  6.47293410789330
STELLA                  
1 22824U 93061B   26074.27157860 -.00000035  00000+0  40532-5 0  9999
2 22824  98.7830 138.1445 0007004 142.7279 305.5121 14.27467683691375
LARETS                  
1 27944U 03042F   26074.26680232  .00000075  00000+0  23936-4 0  9991
2 27944  98.4026 234.5558 0011674 334.6709  25.3919 14.63850162199622
LARES                   
1 38077U 12006A   26074.32257581 -.00000042  00000+0 -24449-4 0  9990
2 38077  69.4873  92.5761 0007168 143.9523 216.1988 12.54932243645299
LARES-2                 
1 53105U 22080A   26065.02398958 -.00000028  00000+0  00000+0 0  9998
2 53105  70.1755 340.7064 0005309 356.7815   3.2821  6.38965015 85076
